EUTELSAT 16A            
1 37836U 11057A   26006.19003278  .00000103  00000+0  00000+0 0  9997
2 37836   0.0586  18.8723 0005523 268.2237 263.0721  1.00270758  5705
VIASAT-1                
1 37843U 11059A   26006.25484859  .00000000  00000+0  00000+0 0  9998
2 37843   0.0213  40.0232 0002242 253.0796 149.3453  1.00267855 45693
ASIASAT 7               
1 37933U 11069A   26006.12088750 -.00000334  00000+0  00000+0 0  9996
2 37933   0.0471 218.9452 0001602  45.4372 350.3595  1.00271760 43230
BEIDOU-2 IGSO-5         
1 37948U 11073A   26004.68731654 -.00000167  00000+0  00000+0 0  9998
2 37948  47.9758 273.5733 0109204 221.9000 310.3944  1.00285673 51498
LUCH-5A                 
1 37951U 11074B   26005.94319455 -.00000055  00000+0  00000+0 0  9990
2 37951   8.3417  76.2230 0005272 201.0255 334.7444  1.00269782 51427
NIGCOMSAT 1R            
1 38014U 11077A   26006.25114509  .00000145  00000+0  00000+0 0  9991
2 38014   0.0293 141.9395 0004355 164.1777 292.6151  1.00273784 51334
WGS F4 (USA 233)        
1 38070U 12003A   26005.76099961 -.00000214  00000+0  00000+0 0  9990
2 38070   0.0160  60.7290 0000747 256.9170 150.0449  1.00268779 42525
SES-4                   
1 38087U 12007A   26006.16707786 -.00000169  00000+0  00000+0 0  9997
2 38087   0.0205  46.7489 0002221 228.4059 228.7310  1.00268654 50606
BEIDOU-2 G5             
1 38091U 12008A   26006.18302464  .00000055  00000+0  00000+0 0  9992
2 38091   3.1701  70.6116 0013770 233.4809 286.2655  1.00272702 50744
MUOS-1                  
1 38093U 12009A   26006.11155962 -.00000129  00000+0  00000+0 0  9990
2 38093   5.1445  47.1977 0052538 357.3151   1.3135  1.00269686 50812
INTELSAT 22 (IS-22)     
1 38098U 12011A   26006.22266955 -.00000059  00000+0  00000+0 0  9997
2 38098   0.0087 317.1255 0001605 323.1969 337.7311  1.00271619  5562
APSTAR-7                
1 38107U 12013A   26006.22266955  .00000000  00000+0  00000+0 0  9995
2 38107   0.0163  46.7239 0003790 257.5000 318.2499  1.00269600 50184
YAHSAT 1B               
1 38245U 12016A   26006.18983437  .00000126  00000+0  00000+0 0  9996
2 38245   0.0620  89.0271 0003411 214.8864 277.7838  1.00270172 43987
AEHF-2 (USA 235)        
1 38254U 12019A   26005.95413977 -.00000138  00000+0  00000+0 0  9994
2 38254   6.2746  58.6710 0003645 225.1816 148.6653  1.00273349  5365
JCSAT-13                
1 38331U 12023A   26006.19585139 -.00000356  00000+0  00000+0 0  9994
2 38331   0.0152  25.8311 0002257 259.0717  15.3666  1.00270498 49916
VINASAT-2               
1 38332U 12023B   26006.19758473 -.00000329  00000+0  00000+0 0  9998
2 38332   0.0123  18.5164 0002750 277.8850  12.3339  1.00270286 45032
NIMIQ 6                 
1 38342U 12026A   26006.23697559 -.00000174  00000+0  00000+0 0  9992
2 38342   0.0331 286.3339 0002958   1.1312 172.5593  1.00271291 48798
ZHONGXING-2A            
1 38352U 12028A   26006.21155969 -.00000293  00000+0  00000+0 0  9999
2 38352   1.0359  86.1852 0002752 195.3675 358.6232  1.00269344 49677
INTELSAT 19 (IS-19)     
1 38356U 12030A   26006.19628073  .00000000  00000+0  00000+0 0  9999
2 38356   0.0212  41.7103 0003119 249.5372  51.2011  1.00269300 48827
ECHOSTAR 17             
1 38551U 12035A   26005.65069292 -.00000076  00000+0  00000+0 0  9997
2 38551   0.0184  28.9986 0001957 253.0719 310.3067  1.00271399 49430
METEOSAT-10 (MSG-3)     
1 38552U 12035B   26005.95743313 -.00000009  00000+0  00000+0 0  9990
2 38552   4.2861  61.6614 0001877 267.8021 120.8593  1.00268545 49236
SES-5                   
1 38652U 12036A   26006.10104069  .00000033  00000+0  00000+0 0  9995
2 38652   0.0599 303.1906 0002162 342.7938 221.0461  1.00272522 42832
INTELSAT 20 (IS-20)     
1 38740U 12043A   26006.22822469 -.00000024  00000+0  00000+0 0  9996
2 38740   0.0182  72.5549 0001994  99.7986  84.1057  1.00270859 49121
HYLAS 2                 
1 38741U 12043B   26006.15702446 -.00000259  00000+0  00000+0 0  9991
2 38741   2.0101  83.1136 0003089 213.3645 153.2024  1.00270400 49155
INTELSAT 21 (IS-21)     
1 38749U 12045A   26006.15997115 -.00000285  00000+0  00000+0 0  9999
2 38749   0.0236  72.6184 0001962 214.2952 178.4033  1.00270070 48909
ASTRA 2F                
1 38778U 12051A   26006.18447509  .00000150  00000+0  00000+0 0  9998
2 38778   0.0603 247.2719 0004176   8.7275 304.3568  1.00273149 39517
GSAT-10                 
1 38779U 12051B   26006.18770468 -.00000164  00000+0  00000+0 0  9998
2 38779   0.0430 233.5720 0001681 231.8184 150.9392  1.00270413 48478
INTELSAT 23 (IS-23)     
1 38867U 12057A   26006.16092448  .00000000  00000+0  00000+0 0  9993
2 38867   0.0224  58.3490 0001518 268.3761 143.9767  1.00264145 48337
BEIDOU-2 G6             
1 38953U 12059A   26006.11672748 -.00000178  00000+0  00000+0 0  9990
2 38953   4.0113  75.2627 0008465 291.2082 225.2550  1.00272151 48287
LUCH-5B                 
1 38977U 12061A   26006.31606959 -.00000142  00000+0  00000+0 0  9993
2 38977  10.1345  51.4704 0006747 202.2689 309.6326  1.00272161 47981
YAMAL 300K              
1 38978U 12061B   26006.13631101  .00000071  00000+0  00000+0 0  9991
2 38978   0.0107  48.1706 0000333 206.8872  82.6515  1.00271495 48001
STAR ONE C3             
1 38991U 12062A   26006.26480353  .00000000  00000+0  00000+0 0  9994
2 38991   0.0194  28.3885 0002315 274.9061 182.8720  1.00266566 48147
EUTELSAT 21B            
1 38992U 12062B   26006.19003278  .00000130  00000+0  00000+0 0  9998
2 38992   0.0675  15.9317 0003033 273.7662 266.0654  1.00270810 48201
ECHOSTAR 16             
1 39008U 12065A   26005.87388594 -.00000282  00000+0  00000+0 0  9990
2 39008   0.0176  42.6695 0001911 247.9817  67.8891  1.00273119 48003
ZHONGXING-12            
1 39017U 12067A   26006.21711462 -.00000206  00000+0  00000+0 0  9991
2 39017   0.0454  89.3237 0003790 192.5651 349.5444  1.00269955 47882
EUTELSAT 70B            
1 39020U 12069A   26006.22808580 -.00000044  00000+0  00000+0 0  9996
2 39020   0.0650 340.1576 0003906 282.1500 356.1111  1.00272955 47885
YAMAL 402               
1 39022U 12070A   26006.25365844  .00000085  00000+0  00000+0 0  9998
2 39022   0.8506  86.4133 0004243 202.9200 322.7098  1.00271619 47773
SKYNET 5D               
1 39034U 12075A   26006.23378238  .00000099  00000+0  00000+0 0  9990
2 39034   0.0730  12.4713 0003876 272.0955 318.1099  1.00271957 47535
MEXSAT 3                
1 39035U 12075B   26006.25484829 -.00000025  00000+0  00000+0 0  9997
2 39035   0.0206  91.8442 0001980 172.2364 178.6837  1.00270750  5424
TDRS 11                 
1 39070U 13004A   26006.13683101  .00000078  00000+0  00000+0 0  9997
2 39070   3.2878  28.2108 0002014 332.6205 339.6949  1.00270495 45064
AMAZONAS 3              
1 39078U 13006A   26005.73135943  .00000000  00000+0  00000+0 0  9993
2 39078   0.0090 107.9743 0004491 157.6844  41.9478  1.00266267 43282
AZERSPACE 1             
1 39079U 13006B   26005.86989346  .00000133  00000+0  00000+0 0  9999
2 39079   0.0176 354.4880 0002106 315.9729 154.1417  1.00272956 47186
SBIRS GEO-2 (USA 241)   
1 39120U 13011A   26006.22585594 -.00000288  00000+0  00000+0 0  9992
2 39120   4.1389  52.2790 0002282 234.6937 210.3383  1.00271210 46919
EUTELSAT 117 WEST A     
1 39122U 13012A   26006.24810027 -.00000013  00000+0  00000+0 0  9995
2 39122   0.0220  51.1703 0003039 241.9991 145.1562  1.00271031 46807
ANIK G1                 
1 39127U 13014A   26006.22969731 -.00000074  00000+0  00000+0 0  9994
2 39127   0.0425 257.0088 0003653  23.7405 160.4315  1.00270859 46623
ZHONGXING-11            
1 39157U 13020A   26006.11950083 -.00000291  00000+0  00000+0 0  9993
2 39157   0.0245 307.4613 0003057 333.7678 325.3942  1.00272329 46277
EUTELSAT 7B             
1 39163U 13022A   26006.19558728  .00000047  00000+0  00000+0 0  9998
2 39163   0.0654   0.5374 0005411 326.8970 215.7312  1.00271259 46327
WGS F5 (USA 243)        
1 39168U 13024A   26005.80433323 -.00000285  00000+0  00000+0 0  9990
2 39168   0.0190  61.5536 0000295 330.7989 310.0961  1.00275059 45547
SES-6                   
1 39172U 13026A   26006.16335117 -.00000261  00000+0  00000+0 0  9993
2 39172   0.0313 315.6357 0002554 326.1047 202.2973  1.00270778 46108
IRNSS-1A                
1 39199U 13034A   26005.75415289  .00000057  00000+0  00000+0 0  9996
2 39199  35.3611  66.2058 0022999 210.9427 154.6377  1.00277626 45749
MUOS-2                  
1 39206U 13036A   26005.92025289 -.00000014  00000+0  00000+0 0  9997
2 39206   4.6720  45.1821 0053665 180.8921  22.7796  1.00273309 45564
ALPHASAT                
1 39215U 13038A   26006.03183715  .00000133  00000+0  00000+0 0  9992
2 39215   2.9705   2.6775 0002326 291.2008 208.0479  1.00270676 42394
INSAT-3D                
1 39216U 13038B   26005.98308662 -.00000340  00000+0  00000+0 0  9997
2 39216   1.5081  84.6991 0001940 169.7798 334.5139  1.00268055 45459
WGS F6 (USA 244)        
1 39222U 13041A   26006.00198008  .00000089  00000+0  00000+0 0  9992
2 39222   0.0173  46.8537 0000350 252.5568  31.6831  1.00270715 44435
ES'HAIL 1               
1 39233U 13044A   26006.19003278  .00000143  00000+0  00000+0 0  9992
2 39233   0.0477   6.9698 0002524 284.2429 268.4390  1.00271384 45009
GSAT-7                  
1 39234U 13044B   26006.11473413 -.00000077  00000+0  00000+0 0  9994
2 39234   0.0443  88.6684 0008302 192.0234 300.2961  1.00271469 43635
AMOS-4                  
1 39237U 13045A   26006.11300079  .00000007  00000+0  00000+0 0  9997
2 39237   0.0073  30.8728 0002626 271.0319 269.4686  1.00272095 45335
AEHF-3 (USA 246)        
1 39256U 13050A   26006.20808559  .00000026  00000+0  00000+0 0  9991
2 39256   4.8917  68.6874 0094720 185.2968 162.5713  1.00275685 44025
ASTRA 2E                
1 39285U 13056A   26006.18447509  .00000150  00000+0  00000+0 0  9998
2 39285   0.0542   2.0082 0002221 289.7810 268.9000  1.00273916 44792
